start=new Date('2022-10-17T00:00:00.000Z').valueOf();
sats=[{"MEAN_ELEMENT_THEORY":"SGP4","ECCENTRICITY":"0.00014390","APOAPSIS":"548.218","SEMIMAJOR_AXIS":"6925.357","SITE":"AFETR","CLASSIFICATION_TYPE":"U","ELEMENT_SET_NO":"999","NORAD_CAT_ID":"48277","FILE":"3617955","TLE_LINE1":"1 48277U 21036B   22289.85034409 -.00000308  00000-0 -17770-5 0  9996","TIME_SYSTEM":"UTC","OBJECT_ID":"2021-036B","REF_FRAME":"TEME","RCS_SIZE":"LARGE","MEAN_ANOMALY":"238.4177","MEAN_MOTION_DDOT":"0.0000000000000","COUNTRY_CODE":"US","REV_AT_EPOCH":"8242","CENTER_NAME":"EARTH","EPOCH":"2022-10-16T20:24:29.729376","BSTAR":"-0.00000177700000","ARG_OF_PERICENTER":"121.6952","RA_OF_ASC_NODE":"177.4843","PERIOD":"95.592","OBJECT_NAME":"STARLINK-2569","GP_ID":"215345312","INCLINATION":"53.0551","LAUNCH_DATE":"2021-04-29","DECAY_DATE":null,"MEAN_MOTION":"15.06397294","MEAN_MOTION_DOT":"-0.00000308","EPHEMERIS_TYPE":"0","OBJECT_TYPE":"PAYLOAD","PERIAPSIS":"546.225","TLE_LINE2":"2 48277  53.0551 177.4843 0001439 121.6952 238.4177 15.06397294 82420"},{"DECAY_DATE":null,"LAUNCH_DATE":"2021-04-29","MEAN_MOTION_DOT":"-0.00001215","MEAN_MOTION":"15.06390128","OBJECT_TYPE":"PAYLOAD","PERIAPSIS":"546.285","EPHEMERIS_TYPE":"0","TLE_LINE2":"2 48278  53.0541 191.1880 0001385 104.5971 255.5172 15.06390128 82834","BSTAR":"-0.00006271300000","ARG_OF_PERICENTER":"104.5971","EPOCH":"2022-10-17T03:40:24.806496","RA_OF_ASC_NODE":"191.1880","GP_ID":"215351097","OBJECT_NAME":"STARLINK-2543","PERIOD":"95.593","INCLINATION":"53.0541","OBJECT_ID":"2021-036C","TIME_SYSTEM":"UTC","MEAN_MOTION_DDOT":"0.0000000000000","MEAN_ANOMALY":"255.5172","REF_FRAME":"TEME","RCS_SIZE":"LARGE","REV_AT_EPOCH":"8283","COUNTRY_CODE":"US","CENTER_NAME":"EARTH","MEAN_ELEMENT_THEORY":"SGP4","ECCENTRICITY":"0.00013850","APOAPSIS":"548.203","CLASSIFICATION_TYPE":"U","SITE":"AFETR","SEMIMAJOR_AXIS":"6925.379","TLE_LINE1":"1 48278U 21036C   22290.15306489 -.00001215  00000-0 -62713-4 0  9996","FILE":"3617974","ELEMENT_SET_NO":"999","NORAD_CAT_ID":"48278"},{"EPOCH":"2022-10-16T08:23:17.610432","BSTAR":"-0.00018840000000","ARG_OF_PERICENTER":"86.0599","RA_OF_ASC_NODE":"194.7244","PERIOD":"95.592","OBJECT_NAME":"STARLINK-2580","GP_ID":"215270273","INCLINATION":"53.0529","LAUNCH_DATE":"2021-04-29","DECAY_DATE":null,"MEAN_MOTION":"15.06395451","MEAN_MOTION_DOT":"-0.00003086","EPHEMERIS_TYPE":"0","OBJECT_TYPE":"PAYLOAD","PERIAPSIS":"546.331","TLE_LINE2":"2 48279  53.0529 194.7244 0001295  86.0599 274.0538 15.06395451 82717","MEAN_ELEMENT_THEORY":"SGP4","ECCENTRICITY":"0.00012950","APOAPSIS":"548.124","SITE":"AFETR","SEMIMAJOR_AXIS":"6925.363","CLASSIFICATION_TYPE":"U","ELEMENT_SET_NO":"999","NORAD_CAT_ID":"48279","FILE":"3616664","TLE_LINE1":"1 48279U 21036D   22289.34950938 -.00003086  00000-0 -18840-3 0  9999","TIME_SYSTEM":"UTC","OBJECT_ID":"2021-036D","REF_FRAME":"TEME","RCS_SIZE":"MEDIUM","MEAN_ANOMALY":"274.0538","MEAN_MOTION_DDOT":"0.0000000000000","COUNTRY_CODE":"US","REV_AT_EPOCH":"8271","CENTER_NAME":"EARTH"},{"MEAN_ANOMALY":"295.3461","MEAN_MOTION_DDOT":"0.0000000000000","REF_FRAME":"TEME","RCS_SIZE":"LARGE","OBJECT_ID":"2021-036E","TIME_SYSTEM":"UTC","CENTER_NAME":"EARTH","REV_AT_EPOCH":"8115","COUNTRY_CODE":"US","APOAPSIS":"548.296","ECCENTRICITY":"0.00015410","MEAN_ELEMENT_THEORY":"SGP4","FILE":"3617121","TLE_LINE1":"1 48280U 21036E   22289.34306337 -.00000521  00000-0 -16093-4 0  9999","NORAD_CAT_ID":"48280","ELEMENT_SET_NO":"999","CLASSIFICATION_TYPE":"U","SITE":"AFETR","SEMIMAJOR_AXIS":"6925.364","MEAN_MOTION_DOT":"-0.00000521","MEAN_MOTION":"15.06394954","DECAY_DATE":null,"LAUNCH_DATE":"2021-04-29","TLE_LINE2":"2 48280  53.0534 264.7584 0001541  64.7687 295.3461 15.06394954 81150","OBJECT_TYPE":"PAYLOAD","PERIAPSIS":"546.162","EPHEMERIS_TYPE":"0","RA_OF_ASC_NODE":"264.7584","BSTAR":"-0.00001609300000","ARG_OF_PERICENTER":"64.7687","EPOCH":"2022-10-16T08:14:00.675168","INCLINATION":"53.0534","GP_ID":"215302408","OBJECT_NAME":"STARLINK-2565","PERIOD":"95.592"},{"TLE_LINE2":"2 48281  53.0543 241.7146 0001546  69.1529 290.9626 15.06394624 82114","EPHEMERIS_TYPE":"0","PERIAPSIS":"546.159","OBJECT_TYPE":"PAYLOAD","MEAN_MOTION":"15.06394624","MEAN_MOTION_DOT":"-0.00000080","LAUNCH_DATE":"2021-04-29","DECAY_DATE":null,"INCLINATION":"53.0543","PERIOD":"95.592","GP_ID":"215351121","OBJECT_NAME":"STARLINK-2520","RA_OF_ASC_NODE":"241.7146","EPOCH":"2022-10-17T00:27:59.736096","ARG_OF_PERICENTER":"69.1529","BSTAR":"0.00001351500000","CENTER_NAME":"EARTH","COUNTRY_CODE":"US","REV_AT_EPOCH":"8211","RCS_SIZE":"LARGE","REF_FRAME":"TEME","MEAN_ANOMALY":"290.9626","MEAN_MOTION_DDOT":"0.0000000000000","TIME_SYSTEM":"UTC","OBJECT_ID":"2021-036F","ELEMENT_SET_NO":"999","NORAD_CAT_ID":"48281","FILE":"3618014","TLE_LINE1":"1 48281U 21036F   22290.01944139 -.00000080  00000-0  13515-4 0  9999","SITE":"AFETR","SEMIMAJOR_AXIS":"6925.365","CLASSIFICATION_TYPE":"U","ECCENTRICITY":"0.00015460","APOAPSIS":"548.301","MEAN_ELEMENT_THEORY":"SGP4"},{"MEAN_MOTION":"15.06393725","MEAN_MOTION_DOT":"-0.00001265","LAUNCH_DATE":"2021-04-29","DECAY_DATE":null,"TLE_LINE2":"2 48282  53.0549 249.8964 0001624  60.0515 300.0635 15.06393725 81360","EPHEMERIS_TYPE":"0","PERIAPSIS":"546.108","OBJECT_TYPE":"PAYLOAD","RA_OF_ASC_NODE":"249.8964","EPOCH":"2022-10-16T07:30:53.313120","BSTAR":"-0.00006604700000","ARG_OF_PERICENTER":"60.0515","INCLINATION":"53.0549","PERIOD":"95.593","GP_ID":"215303410","OBJECT_NAME":"STARLINK-2558","REF_FRAME":"TEME","RCS_SIZE":"LARGE","MEAN_ANOMALY":"300.0635","MEAN_MOTION_DDOT":"0.0000000000000","TIME_SYSTEM":"UTC","OBJECT_ID":"2021-036G","CENTER_NAME":"EARTH","COUNTRY_CODE":"US","REV_AT_EPOCH":"8136","APOAPSIS":"548.357","ECCENTRICITY":"0.00016240","MEAN_ELEMENT_THEORY":"SGP4","ELEMENT_SET_NO":"999","NORAD_CAT_ID":"48282","FILE":"3617121","TLE_LINE1":"1 48282U 21036G   22289.31311705 -.00001265  00000-0 -66047-4 0  9993","SITE":"AFETR","SEMIMAJOR_AXIS":"6925.368","CLASSIFICATION_TYPE":"U"},{"INCLINATION":"53.0531","OBJECT_NAME":"STARLINK-2516","GP_ID":"215302158","PERIOD":"95.592","RA_OF_ASC_NODE":"249.0110","BSTAR":"0.00002663400000","ARG_OF_PERICENTER":"69.1610","EPOCH":"2022-10-16T12:12:11.457216","TLE_LINE2":"2 48283  53.0531 249.0110 0001623  69.1610 290.9553 15.06398887 81395","OBJECT_TYPE":"PAYLOAD","PERIAPSIS":"546.093","EPHEMERIS_TYPE":"0","MEAN_MOTION_DOT":"0.00000115","MEAN_MOTION":"15.06398887","DECAY_DATE":null,"LAUNCH_DATE":"2021-04-29","FILE":"3617121","TLE_LINE1":"1 48283U 21036H   22289.50846594  .00000115  00000-0  26634-4 0  9993","NORAD_CAT_ID":"48283","ELEMENT_SET_NO":"999","CLASSIFICATION_TYPE":"U","SITE":"AFETR","SEMIMAJOR_AXIS":"6925.352","APOAPSIS":"548.341","ECCENTRICITY":"0.00016230","MEAN_ELEMENT_THEORY":"SGP4","CENTER_NAME":"EARTH","REV_AT_EPOCH":"8139","COUNTRY_CODE":"US","MEAN_ANOMALY":"290.9553","MEAN_MOTION_DDOT":"0.0000000000000","RCS_SIZE":"MEDIUM","REF_FRAME":"TEME","OBJECT_ID":"2021-036H","TIME_SYSTEM":"UTC"},{"CLASSIFICATION_TYPE":"U","SEMIMAJOR_AXIS":"6925.364","SITE":"AFETR","TLE_LINE1":"1 48284U 21036J   22289.30574371 -.00000035  00000-0  16545-4 0  9995","FILE":"3617121","ELEMENT_SET_NO":"999","NORAD_CAT_ID":"48284","MEAN_ELEMENT_THEORY":"SGP4","APOAPSIS":"548.213","ECCENTRICITY":"0.00014220","REV_AT_EPOCH":"8135","COUNTRY_CODE":"US","CENTER_NAME":"EARTH","OBJECT_ID":"2021-036J","TIME_SYSTEM":"UTC","MEAN_MOTION_DDOT":"0.0000000000000","MEAN_ANOMALY":"272.4604","REF_FRAME":"TEME","RCS_SIZE":"LARGE","GP_ID":"215301908","OBJECT_NAME":"STARLINK-2564","PERIOD":"95.592","INCLINATION":"53.0562","BSTAR":"0.00001654500000","ARG_OF_PERICENTER":"87.6548","EPOCH":"2022-10-16T07:20:16.256544","RA_OF_ASC_NODE":"249.9223","PERIAPSIS":"546.244","OBJECT_TYPE":"PAYLOAD","EPHEMERIS_TYPE":"0","TLE_LINE2":"2 48284  53.0562 249.9223 0001422  87.6548 272.4604 15.06395078 81353","DECAY_DATE":null,"LAUNCH_DATE":"2021-04-29","MEAN_MOTION_DOT":"-0.00000035","MEAN_MOTION":"15.06395078"},{"LAUNCH_DATE":"2021-04-29","DECAY_DATE":null,"MEAN_MOTION":"15.06410586","MEAN_MOTION_DOT":"0.00002266","EPHEMERIS_TYPE":"0","PERIAPSIS":"546.064","OBJECT_TYPE":"PAYLOAD","TLE_LINE2":"2 48285  53.0545 249.3389 0001613  67.8603 292.2557 15.06410586 81377","EPOCH":"2022-10-16T10:24:40.432320","ARG_OF_PERICENTER":"67.8603","BSTAR":"0.00017095000000","RA_OF_ASC_NODE":"249.3389","PERIOD":"95.591","GP_ID":"215303160","OBJECT_NAME":"STARLINK-2548","INCLINATION":"53.0545","TIME_SYSTEM":"UTC","OBJECT_ID":"2021-036K","REF_FRAME":"TEME","RCS_SIZE":"LARGE","MEAN_ANOMALY":"292.2557","MEAN_MOTION_DDOT":"0.0000000000000","COUNTRY_CODE":"US","REV_AT_EPOCH":"8137","CENTER_NAME":"EARTH","MEAN_ELEMENT_THEORY":"SGP4","ECCENTRICITY":"0.00016130","APOAPSIS":"548.298","SEMIMAJOR_AXIS":"6925.316","SITE":"AFETR","CLASSIFICATION_TYPE":"U","ELEMENT_SET_NO":"999","NORAD_CAT_ID":"48285","FILE":"3617121","TLE_LINE1":"1 48285U 21036K   22289.43380130  .00002266  00000-0  17095-3 0  9995"},{"REF_FRAME":"TEME","RCS_SIZE":"LARGE","MEAN_MOTION_DDOT":"0.0000000000000","MEAN_ANOMALY":"284.9980","TIME_SYSTEM":"UTC","OBJECT_ID":"2021-036L","CENTER_NAME":"EARTH","COUNTRY_CODE":"US","REV_AT_EPOCH":"8195","ECCENTRICITY":"0.00014330","APOAPSIS":"548.221","MEAN_ELEMENT_THEORY":"SGP4","NORAD_CAT_ID":"48286","ELEMENT_SET_NO":"999","TLE_LINE1":"1 48286U 21036L   22289.43106452 -.00000551  00000-0 -18110-4 0  9996","FILE":"3616535","SITE":"AFETR","SEMIMAJOR_AXIS":"6925.363","CLASSIFICATION_TYPE":"U","MEAN_MOTION":"15.06395201","MEAN_MOTION_DOT":"-0.00000551","LAUNCH_DATE":"2021-04-29","DECAY_DATE":null,"TLE_LINE2":"2 48286  53.0526 249.3670 0001433  75.1168 284.9980 15.06395201 81956","EPHEMERIS_TYPE":"0","PERIAPSIS":"546.236","OBJECT_TYPE":"PAYLOAD","RA_OF_ASC_NODE":"249.3670","EPOCH":"2022-10-16T10:20:43.974528","BSTAR":"-0.00001811000000","ARG_OF_PERICENTER":"75.1168","INCLINATION":"53.0526","PERIOD":"95.592","GP_ID":"215266284","OBJECT_NAME":"STARLINK-2547"}];
